; Zigzag T0-T1 switching G-code
; XLen: 20 YLen: 20 行数: 10
; NormalSpeedA: 5 NormalSpeedB: 5 SwitchSpeedA: 10 SwitchSpeedB: 30
; SwitchStepA: 3 SwitchStepB: 0 MaterialLenA: 5 MaterialLenB: 5
G1 X0.000 Y0.000
G1 X5.000 Y0.000 V5.000 T0 P100
G1 X10.000 Y0.000 V5.000 T1 P100
G1 X15.000 Y0.000 V5.000 T0 P100
G1 X20.000 Y0.000 V5.000 T1 P100
G1 X20.000 Y2.000 V5.000 T1
G1 X15.000 Y2.000 V5.000 T1 P100
G1 X10.000 Y2.000 V5.000 T0 P100
G1 X5.000 Y2.000 V5.000 T1 P100
G1 X0.000 Y2.000 V5.000 T0 P100
G1 X0.000 Y4.000 V5.000 T0
G1 X5.000 Y4.000 V5.000 T0 P100
G1 X10.000 Y4.000 V5.000 T1 P100
G1 X15.000 Y4.000 V5.000 T0 P100
G1 X20.000 Y4.000 V5.000 T1 P100
G1 X20.000 Y6.000 V5.000 T1
G1 X15.000 Y6.000 V5.000 T1 P100
G1 X10.000 Y6.000 V5.000 T0 P100
G1 X5.000 Y6.000 V5.000 T1 P100
G1 X0.000 Y6.000 V5.000 T0 P100
G1 X0.000 Y8.000 V5.000 T0
G1 X5.000 Y8.000 V5.000 T0 P100
G1 X10.000 Y8.000 V5.000 T1 P100
G1 X15.000 Y8.000 V5.000 T0 P100
G1 X20.000 Y8.000 V5.000 T1 P100
G1 X20.000 Y10.000 V5.000 T1
G1 X15.000 Y10.000 V5.000 T1 P100
G1 X10.000 Y10.000 V5.000 T0 P100
G1 X5.000 Y10.000 V5.000 T1 P100
G1 X0.000 Y10.000 V5.000 T0 P100
G1 X0.000 Y12.000 V5.000 T0
G1 X5.000 Y12.000 V5.000 T0 P100
G1 X10.000 Y12.000 V5.000 T1 P100
G1 X15.000 Y12.000 V5.000 T0 P100
G1 X20.000 Y12.000 V5.000 T1 P100
G1 X20.000 Y14.000 V5.000 T1
G1 X15.000 Y14.000 V5.000 T1 P100
G1 X10.000 Y14.000 V5.000 T0 P100
G1 X5.000 Y14.000 V5.000 T1 P100
G1 X0.000 Y14.000 V5.000 T0 P100
G1 X0.000 Y16.000 V5.000 T0
G1 X5.000 Y16.000 V5.000 T0 P100
G1 X10.000 Y16.000 V5.000 T1 P100
G1 X15.000 Y16.000 V5.000 T0 P100
G1 X20.000 Y16.000 V5.000 T1 P100
G1 X20.000 Y18.000 V5.000 T1
G1 X15.000 Y18.000 V5.000 T1 P100
G1 X10.000 Y18.000 V5.000 T0 P100
G1 X5.000 Y18.000 V5.000 T1 P100
G1 X0.000 Y18.000 V5.000 T0 P100

